[{"OBJECT_NAME":"STARLINK-33982","OBJECT_ID":"2025-087L","EPOCH":"2026-03-09T16:59:34.061568","MEAN_MOTION":15.30201303,"ECCENTRICITY":9.925e-5,"INCLINATION":53.1571,"RA_OF_ASC_NODE":219.3837,"ARG_OF_PERICENTER":62.446,"MEAN_ANOMALY":297.6642,"EPHEMERIS_TYPE":0,"CLASSIFICATION_TYPE":"U","NORAD_CAT_ID":63707,"ELEMENT_SET_NO":999,"REV_AT_EPOCH":4920,"BSTAR":0.00090453347,"MEAN_MOTION_DOT":0.00026527,"MEAN_MOTION_DDOT":0},{"OBJECT_NAME":"GEOSCAN 3 (RS92S3)","OBJECT_ID":"2025-155T","EPOCH":"2026-03-09T22:52:10.587648","MEAN_MOTION":15.31696739,"ECCENTRICITY":0.00068078,"INCLINATION":97.4455,"RA_OF_ASC_NODE":37.9971,"ARG_OF_PERICENTER":154.1387,"MEAN_ANOMALY":206.0196,"EPHEMERIS_TYPE":0,"CLASSIFICATION_TYPE":"U","NORAD_CAT_ID":64893,"ELEMENT_SET_NO":999,"REV_AT_EPOCH":6564,"BSTAR":0.00078414081,"MEAN_MOTION_DOT":0.00023985,"MEAN_MOTION_DDOT":0}]
